STARLINK-1577           
1 46063U 20055AN  26068.52694568  .00010562  00000+0  36800-3 0  9991
2 46063  53.1613 114.5871 0001392  79.7271 280.3887 15.30219657309046
YAOGAN-36 04C           
1 54750U 22171E   26068.78871400  .00016196  00000+0  54592-3 0  9991
2 54750  34.9797  96.6578 0006685 275.3761  84.6192 15.29852307180246
